{"type": "FeatureCollection", "features": [{"type": "Feature", "properties": {"norad_id": 24946, "name": "IRIDIUM 33", "group": "iridium-33-debris", "lat": -17.1717750324335, "lon": -111.12988259872766, "alt_km": 774.8548244288559, "timestamp": "2025-12-13T20:38:51.391175+00:00", "meta": {"OBJECT_NAME": "IRIDIUM 33", "OBJECT_ID": "1997-051C", "EPOCH": "2025-12-13T08:01:02.847936", "MEAN_MOTION": 14.35038433, "ECCENTRICITY": 0.00070947, "INCLINATION": 86.3869, "RA_OF_ASC_NODE": 67.9722, "ARG_OF_PERICENTER": 198.1556, "MEAN_ANOMALY": 161.9388, "EPHEMERIS_TYPE": 0, "CLASSIFICATION_TYPE": "U", "NORAD_CAT_ID": 24946, "ELEMENT_SET_NO": 999, "REV_AT_EPOCH": 47843, "BSTAR": 0.00019114902, "MEAN_MOTION_DOT": 5.64e-06, "MEAN_MOTION_DDOT": 0}, "tle": {"line1": "1 24946U 97051C   25347.33406074  .00000564  00000+0  19115-3 0  9999", "line2": "2 24946  86.3869  67.9722 0007094 198.1556 161.9388 14.35038433478431"}}, "geometry": {"type": "Point", "coordinates": [-111.12988259872766, -17.1717750324335]}}, {"type": "Feature", "properties": {"norad_id": 33773, "name": "IRIDIUM 33 DEB", "group": "iridium-33-debris", "lat": -7.407391638945401, "lon": -119.41648560191322, "alt_km": 745.3473184768081, "timestamp": "2025-12-13T20:38:51.391224+00:00", "meta": {"OBJECT_NAME": "IRIDIUM 33 DEB", "OBJECT_ID": "1997-051L", "EPOCH": "2025-12-13T06:28:17.713344", "MEAN_MOTION": 14.43259737, "ECCENTRICITY": 0.00125049, "INCLINATION": 86.4008, "RA_OF_ASC_NODE": 60.3649, "ARG_OF_PERICENTER": 144.8452, "MEAN_ANOMALY": 215.3577, "EPHEMERIS_TYPE": 0, "CLASSIFICATION_TYPE": "U", "NORAD_CAT_ID": 33773, "ELEMENT_SET_NO": 999, "REV_AT_EPOCH": 88355, "BSTAR": 0.00050662397, "MEAN_MOTION_DOT": 1.726e-05, "MEAN_MOTION_DDOT": 0}, "tle": {"line1": "1 33773U 97051L   25347.26964946  .00001726  00000+0  50662-3 0  9999", "line2": "2 33773  86.4008  60.3649 0012504 144.8452 215.3577 14.43259737883553"}}, "geometry": {"type": "Point", "coordinates": [-119.41648560191322, -7.407391638945401]}}, {"type": "Feature", "properties": {"norad_id": 33775, "name": "IRIDIUM 33 DEB", "group": "iridium-33-debris", "lat": -82.70159461646841, "lon": -101.15432429456015, "alt_km": 765.0132010654097, "timestamp": "2025-12-13T20:38:51.391241+00:00", "meta": {"OBJECT_NAME": "IRIDIUM 33 DEB", "OBJECT_ID": "1997-051N", "EPOCH": "2025-12-13T06:24:57.153024", "MEAN_MOTION": 14.41470952, "ECCENTRICITY": 0.00143442, "INCLINATION": 86.3637, "RA_OF_ASC_NODE": 49.3285, "ARG_OF_PERICENTER": 152.9768, "MEAN_ANOMALY": 275.2866, "EPHEMERIS_TYPE": 0, "CLASSIFICATION_TYPE": "U", "NORAD_CAT_ID": 33775, "ELEMENT_SET_NO": 999, "REV_AT_EPOCH": 88148, "BSTAR": 0.00051001862, "MEAN_MOTION_DOT": 1.676e-05, "MEAN_MOTION_DDOT": 0}, "tle": {"line1": "1 33775U 97051N   25347.26732816  .00001676  00000+0  51002-3 0  9993", "line2": "2 33775  86.3637  49.3285 0014344 152.9768 275.2866 14.41470952881487"}}, "geometry": {"type": "Point", "coordinates": [-101.15432429456015, -82.70159461646841]}}, {"type": "Feature", "properties": {"norad_id": 33776, "name": "IRIDIUM 33 DEB", "group": "iridium-33-debris", "lat": 59.739075853550226, "lon": -105.88275542112996, "alt_km": 754.5351122337252, "timestamp": "2025-12-13T20:38:51.391255+00:00", "meta": {"OBJECT_NAME": "IRIDIUM 33 DEB", "OBJECT_ID": "1997-051P", "EPOCH": "2025-12-13T06:59:02.487264", "MEAN_MOTION": 14.38237096, "ECCENTRICITY": 0.00143999, "INCLINATION": 86.4037, "RA_OF_ASC_NODE": 80.5444, "ARG_OF_PERICENTER": 188.5448, "MEAN_ANOMALY": 225.7657, "EPHEMERIS_TYPE": 0, "CLASSIFICATION_TYPE": "U", "NORAD_CAT_ID": 33776, "ELEMENT_SET_NO": 999, "REV_AT_EPOCH": 88090, "BSTAR": 0.00045884288, "MEAN_MOTION_DOT": 1.415e-05, "MEAN_MOTION_DDOT": 0}, "tle": {"line1": "1 33776U 97051P   25347.29100101  .00001415  00000+0  45884-3 0  9995", "line2": "2 33776  86.4037  80.5444 0014399 188.5448 225.7657 14.38237096880907"}}, "geometry": {"type": "Point", "coordinates": [-105.88275542112996, 59.739075853550226]}}, {"type": "Feature", "properties": {"norad_id": 33777, "name": "IRIDIUM 33 DEB", "group": "iridium-33-debris", "lat": -22.126346967467985, "lon": 33.24059150440037, "alt_km": 712.9926767977713, "timestamp": "2025-12-13T20:38:51.391268+00:00", "meta": {"OBJECT_NAME": "IRIDIUM 33 DEB", "OBJECT_ID": "1997-051Q", "EPOCH": "2025-12-13T04:15:03.139488", "MEAN_MOTION": 14.55621166, "ECCENTRICITY": 0.00051914, "INCLINATION": 86.3788, "RA_OF_ASC_NODE": 35.0131, "ARG_OF_PERICENTER": 246.9353, "MEAN_ANOMALY": 113.1307, "EPHEMERIS_TYPE": 0, "CLASSIFICATION_TYPE": "U", "NORAD_CAT_ID": 33777, "ELEMENT_SET_NO": 999, "REV_AT_EPOCH": 88540, "BSTAR": 0.0013129582, "MEAN_MOTION_DOT": 5.75e-05, "MEAN_MOTION_DDOT": 0}, "tle": {"line1": "1 33777U 97051Q   25347.17711967  .00005750  00000+0  13130-2 0  9995", "line2": "2 33777  86.3788  35.0131 0005191 246.9353 113.1307 14.55621166885408"}}, "geometry": {"type": "Point", "coordinates": [33.24059150440037, -22.126346967467985]}}, {"type": "Feature", "properties": {"norad_id": 33850, "name": "IRIDIUM 33 DEB", "group": "iridium-33-debris", "lat": -67.04407351025758, "lon": -141.61446568870468, "alt_km": 758.7181222520312, "timestamp": "2025-12-13T20:38:51.391281+00:00", "meta": {"OBJECT_NAME": "IRIDIUM 33 DEB", "OBJECT_ID": "1997-051T", "EPOCH": "2025-12-13T03:05:58.527168", "MEAN_MOTION": 14.42147457, "ECCENTRICITY": 0.00122848, "INCLINATION": 86.3417, "RA_OF_ASC_NODE": 30.0123, "ARG_OF_PERICENTER": 159.7826, "MEAN_ANOMALY": 253.7363, "EPHEMERIS_TYPE": 0, "CLASSIFICATION_TYPE": "U", "NORAD_CAT_ID": 33850, "ELEMENT_SET_NO": 999, "REV_AT_EPOCH": 88158, "BSTAR": 0.00044273962, "MEAN_MOTION_DOT": 1.477e-05, "MEAN_MOTION_DDOT": 0}, "tle": {"line1": "1 33850U 97051T   25347.12914962  .00001477  00000+0  44274-3 0  9998", "line2": "2 33850  86.3417  30.0123 0012284 159.7826 253.7363 14.42147457881582"}}, "geometry": {"type": "Point", "coordinates": [-141.61446568870468, -67.04407351025758]}}, {"type": "Feature", "properties": {"norad_id": 33853, "name": "IRIDIUM 33 DEB", "group": "iridium-33-debris", "lat": 83.56922691016995, "lon": 130.94538791895195, "alt_km": 998.8658731210999, "timestamp": "2025-12-13T20:38:51.391293+00:00", "meta": {"OBJECT_NAME": "IRIDIUM 33 DEB", "OBJECT_ID": "1997-051W", "EPOCH": "2025-12-13T06:29:57.095808", "MEAN_MOTION": 13.99068343, "ECCENTRICITY": 0.02069862, "INCLINATION": 85.9999, "RA_OF_ASC_NODE": 349.5788, "ARG_OF_PERICENTER": 234.1677, "MEAN_ANOMALY": 135.0988, "EPHEMERIS_TYPE": 0, "CLASSIFICATION_TYPE": "U", "NORAD_CAT_ID": 33853, "ELEMENT_SET_NO": 999, "REV_AT_EPOCH": 85353, "BSTAR": 0.0028834559, "MEAN_MOTION_DOT": 5.028e-05, "MEAN_MOTION_DDOT": 0}, "tle": {"line1": "1 33853U 97051W   25347.27079972  .00005028  00000+0  28835-2 0  9990", "line2": "2 33853  85.9999 349.5788 0206986 234.1677 135.0988 13.99068343853532"}}, "geometry": {"type": "Point", "coordinates": [130.94538791895195, 83.56922691016995]}}, {"type": "Feature", "properties": {"norad_id": 33860, "name": "IRIDIUM 33 DEB", "group": "iridium-33-debris", "lat": -76.97593562870205, "lon": 10.876497005819932, "alt_km": 675.1501198558035, "timestamp": "2025-12-13T20:38:51.391306+00:00", "meta": {"OBJECT_NAME": "IRIDIUM 33 DEB", "OBJECT_ID": "1997-051AD", "EPOCH": "2025-12-13T03:14:30.132672", "MEAN_MOTION": 14.67378607, "ECCENTRICITY": 0.00074226, "INCLINATION": 86.384, "RA_OF_ASC_NODE": 27.0632, "ARG_OF_PERICENTER": 356.3471, "MEAN_ANOMALY": 57.6015, "EPHEMERIS_TYPE": 0, "CLASSIFICATION_TYPE": "U", "NORAD_CAT_ID": 33860, "ELEMENT_SET_NO": 999, "REV_AT_EPOCH": 88728, "BSTAR": 0.0017412882, "MEAN_MOTION_DOT": 9.869e-05, "MEAN_MOTION_DDOT": 0}, "tle": {"line1": "1 33860U 97051AD  25347.13507098  .00009869  00000+0  17413-2 0  9995", "line2": "2 33860  86.3840  27.0632 0007422 356.3471  57.6015 14.67378607887281"}}, "geometry": {"type": "Point", "coordinates": [10.876497005819932, -76.97593562870205]}}, {"type": "Feature", "properties": {"norad_id": 33862, "name": "IRIDIUM 33 DEB", "group": "iridium-33-debris", "lat": -34.211248051158684, "lon": 34.58927424266058, "alt_km": 674.9903431936282, "timestamp": "2025-12-13T20:38:51.391318+00:00", "meta": {"OBJECT_NAME": "IRIDIUM 33 DEB", "OBJECT_ID": "1997-051AF", "EPOCH": "2025-12-13T04:44:07.482912", "MEAN_MOTION": 14.69492259, "ECCENTRICITY": 0.00534134, "INCLINATION": 86.4094, "RA_OF_ASC_NODE": 37.3283, "ARG_OF_PERICENTER": 67.6393, "MEAN_ANOMALY": 353.626, "EPHEMERIS_TYPE": 0, "CLASSIFICATION_TYPE": "U", "NORAD_CAT_ID": 33862, "ELEMENT_SET_NO": 999, "REV_AT_EPOCH": 88830, "BSTAR": 0.0020464006, "MEAN_MOTION_DOT": 0.0001243, "MEAN_MOTION_DDOT": 0}, "tle": {"line1": "1 33862U 97051AF  25347.19730883  .00012430  00000+0  20464-2 0  9991", "line2": "2 33862  86.4094  37.3283 0053413  67.6393 353.6260 14.69492259888304"}}, "geometry": {"type": "Point", "coordinates": [34.58927424266058, -34.211248051158684]}}, {"type": "Feature", "properties": {"norad_id": 33866, "name": "IRIDIUM 33 DEB", "group": "iridium-33-debris", "lat": -34.70504964179926, "lon": -84.86985789094595, "alt_km": 768.1987327515571, "timestamp": "2025-12-13T20:38:51.391330+00:00", "meta": {"OBJECT_NAME": "IRIDIUM 33 DEB", "OBJECT_ID": "1997-051AK", "EPOCH": "2025-12-13T06:27:14.821920", "MEAN_MOTION": 14.25279242, "ECCENTRICITY": 0.01145091, "INCLINATION": 86.2997, "RA_OF_ASC_NODE": 92.8116, "ARG_OF_PERICENTER": 159.7258, "MEAN_ANOMALY": 261.3085, "EPHEMERIS_TYPE": 0, "CLASSIFICATION_TYPE": "U", "NORAD_CAT_ID": 33866, "ELEMENT_SET_NO": 999, "REV_AT_EPOCH": 86818, "BSTAR": 0.0010855955, "MEAN_MOTION_DOT": 2.754e-05, "MEAN_MOTION_DDOT": 0}, "tle": {"line1": "1 33866U 97051AK  25347.26892155  .00002754  00000+0  10856-2 0  9996", "line2": "2 33866  86.2997  92.8116 0114509 159.7258 261.3085 14.25279242868187"}}, "geometry": {"type": "Point", "coordinates": [-84.86985789094595, -34.70504964179926]}}]}